[{"OBJECT_NAME":"GENMAT-1","OBJECT_ID":"2023-174W","EPOCH":"2026-03-09T18:03:23.351040","MEAN_MOTION":15.32594666,"ECCENTRICITY":0.00074416,"INCLINATION":97.3728,"RA_OF_ASC_NODE":146.8236,"ARG_OF_PERICENTER":169.2515,"MEAN_ANOMALY":190.8888,"EPHEMERIS_TYPE":0,"CLASSIFICATION_TYPE":"U","NORAD_CAT_ID":58276,"ELEMENT_SET_NO":999,"REV_AT_EPOCH":12973,"BSTAR":0.00042157222,"MEAN_MOTION_DOT":0.0001321,"MEAN_MOTION_DDOT":0},{"OBJECT_NAME":"STARLINK-34227","OBJECT_ID":"2025-113J","EPOCH":"2026-03-09T11:35:57.489792","MEAN_MOTION":15.30210171,"ECCENTRICITY":0.00013032,"INCLINATION":53.1584,"RA_OF_ASC_NODE":92.0831,"ARG_OF_PERICENTER":73.7662,"MEAN_ANOMALY":286.3482,"EPHEMERIS_TYPE":0,"CLASSIFICATION_TYPE":"U","NORAD_CAT_ID":64178,"ELEMENT_SET_NO":999,"REV_AT_EPOCH":4503,"BSTAR":0.00093659475,"MEAN_MOTION_DOT":0.00027491,"MEAN_MOTION_DDOT":0}]
